[{"OBJECT_NAME":"STARLINK-35136","OBJECT_ID":"2025-200T","EPOCH":"2026-03-09T17:22:37.635744","MEAN_MOTION":15.0562863,"ECCENTRICITY":0.00016048,"INCLINATION":97.6024,"RA_OF_ASC_NODE":139.7945,"ARG_OF_PERICENTER":88.3851,"MEAN_ANOMALY":271.7559,"EPHEMERIS_TYPE":0,"CLASSIFICATION_TYPE":"U","NORAD_CAT_ID":65537,"ELEMENT_SET_NO":999,"REV_AT_EPOCH":2904,"BSTAR":0.00068992897,"MEAN_MOTION_DOT":9.902e-5,"MEAN_MOTION_DDOT":0},{"OBJECT_NAME":"FENGYUN 1C DEB","OBJECT_ID":"1999-025DQF","EPOCH":"2026-03-09T11:13:08.013504","MEAN_MOTION":14.90370931,"ECCENTRICITY":0.01269339,"INCLINATION":98.9808,"RA_OF_ASC_NODE":67.5909,"ARG_OF_PERICENTER":49.019,"MEAN_ANOMALY":312.1923,"EPHEMERIS_TYPE":0,"CLASSIFICATION_TYPE":"U","NORAD_CAT_ID":35223,"ELEMENT_SET_NO":999,"REV_AT_EPOCH":95173,"BSTAR":0.00097388848,"MEAN_MOTION_DOT":0.00010982,"MEAN_MOTION_DDOT":0}]
